H1 CPF  1  HTS 2022  8 26 12  7381 larets           NONE
H2  0304206 5557    27944 2022 08 26  0  0  0 2022 08 31  0  0  0   180 1 1  0 0 0
H5  0.0560 
H9 
10 0 59818  83880.00000  0    5100832.808    4297901.366    2295414.709
10 0 59818  84060.00000  0    4854361.065    3719320.441    3510170.484
10 0 59818  84240.00000  0    4413641.560    3013841.788    4595718.723
10 0 59818  84420.00000  0    3791866.890    2212181.927    5512118.263
10 0 59818  84600.00000  0    3009726.091    1348143.646    6225715.016
10 0 59818  84780.00000  0    2094669.748     457160.682    6710370.497
10 0 59818  84960.00000  0    1079904.408    -425177.056    6948390.722
10 0 59818  85140.00000  0       3154.398   -1264556.319    6931146.645
10 0 59818  85320.00000  0   -1094766.267   -2029286.141    6659364.818
10 0 59818  85500.00000  0   -2171516.474   -2691502.639    6143082.914
10 0 59818  85680.00000  0   -3184866.624   -3228190.777    5401284.299
10 0 59818  85860.00000  0   -4094374.059   -3621999.934    4461224.120
10 0 59818  86040.00000  0   -4863028.459   -3861817.291    3357438.158
10 0 59818  86220.00000  0   -5458786.263   -3943073.478    2130474.723
10 0 59819      0.00000  0   -5855934.041   -3867772.286     825391.034
10 0 59819    180.00000  0   -6036209.883   -3644236.905    -509937.746
10 0 59819    360.00000  0   -5989623.081   -3286584.837   -1826621.399
10 0 59819    540.00000  0   -5714926.673   -2813959.300   -3076591.250
10 0 59819    720.00000  0   -5219721.400   -2249561.952   -4214378.228
10 0 59819    900.00000  0   -4520200.909   -1619545.145   -5198758.674
10 0 59819   1080.00000  0   -3640560.548    -951821.925   -5994209.211
10 0 59819   1260.00000  0   -2612105.066    -274850.379   -6572123.605
10 0 59819   1440.00000  0   -1472103.502     383551.715   -6911762.207
10 0 59819   1620.00000  0    -262440.215     997314.099   -7000922.768
10 0 59819   1800.00000  0     971888.112    1543111.364   -6836332.890
10 0 59819   1980.00000  0    2184393.479    2001223.478   -6423770.070
10 0 59819   2160.00000  0    3328802.917    2356239.222   -5777898.122
10 0 59819   2340.00000  0    4360794.735    2597578.110   -4921811.528
10 0 59819   2520.00000  0    5239714.246    2719815.231   -3886295.822
10 0 59819   2700.00000  0    5930210.659    2722794.672   -2708799.753
10 0 59819   2880.00000  0    6403720.712    2611521.077   -1432138.872
10 0 59819   3060.00000  0    6639726.825    2395826.548    -102957.803
10 0 59819   3240.00000  0    6626710.934    2089819.596    1229994.927
10 0 59819   3420.00000  0    6362742.687    1711140.250    2517702.774
10 0 59819   3600.00000  0    5855670.116    1280060.975    3712748.425
10 0 59819   3780.00000  0    5122887.258     818476.004    4771125.097
10 0 59819   3960.00000  0    4190693.896     348837.857    5653900.062
10 0 59819   4140.00000  0    3093288.445    -106903.018    6328664.642
10 0 59819   4320.00000  0    1871444.007    -528301.339    6770712.591
10 0 59819   4500.00000  0     570941.027    -897316.144    6963918.878
10 0 59819   4680.00000  0    -759188.573   -1199074.693    6901300.717
10 0 59819   4860.00000  0   -2068534.775   -1422469.845    6585244.532
10 0 59819   5040.00000  0   -3307230.945   -1560568.787    6027404.758
10 0 59819   5220.00000  0   -4427866.762   -1610821.288    5248288.752
10 0 59819   5400.00000  0   -5387336.925   -1575067.788    4276522.981
10 0 59819   5580.00000  0   -6148542.165   -1459341.937    3147809.551
10 0 59819   5760.00000  0   -6681867.470   -1273474.844    1903613.103
10 0 59819   5940.00000  0   -6966380.665   -1030523.309     589621.009
10 0 59819   6120.00000  0   -6990681.314    -746047.203    -745976.255
10 0 59819   6300.00000  0   -6753350.333    -437273.381   -2054300.914
10 0 59819   6480.00000  0   -6262983.845    -122192.909   -3287615.205
10 0 59819   6660.00000  0   -5537820.873     181359.366   -4401082.931
10 0 59819   6840.00000  0   -4604984.139     456599.257   -5354390.507
10 0 59819   7020.00000  0   -3499388.130     688615.381   -6113161.104
10 0 59819   7200.00000  0   -2262377.200     865079.854   -6650122.852
10 0 59819   7380.00000  0    -940161.347     976820.747   -6946008.114
10 0 59819   7560.00000  0     417891.237    1018239.995   -6990175.963
10 0 59819   7740.00000  0    1761046.646     987562.967   -6780957.215
10 0 59819   7920.00000  0    3039046.137     886913.685   -6325727.054
10 0 59819   8100.00000  0    4203946.039     722212.680   -5640686.044
10 0 59819   8280.00000  0    5211897.848     502897.733   -4750354.145
10 0 59819   8460.00000  0    6024820.241     241475.711   -3686779.982
10 0 59819   8640.00000  0    6611897.517     -47082.157   -2488463.896
10 0 59819   8820.00000  0    6950835.538    -346080.176   -1199016.900
10 0 59819   9000.00000  0    7028805.387    -637941.370     134414.630
10 0 59819   9180.00000  0    6843011.309    -905112.495    1462897.506
10 0 59819   9360.00000  0    6400844.446   -1130986.014    2737561.205
10 0 59819   9540.00000  0    5719600.609   -1300787.013    3911464.761
10 0 59819   9720.00000  0    4825773.632   -1402375.685    4941384.919
10 0 59819   9900.00000  0    3753968.051   -1426923.523    5789446.053
10 0 59819  10080.00000  0    2545490.319   -1369424.785    6424525.209
10 0 59819  10260.00000  0    1246691.505   -1229024.760    6823381.523
10 0 59819  10440.00000  0     -92861.665   -1009150.734    6971480.565
10 0 59819  10620.00000  0   -1422313.254    -717438.268    6863492.332
10 0 59819  10800.00000  0   -2691464.860    -365458.499    6503460.464
10 0 59819  10980.00000  0   -3852681.195      31744.968    5904648.895
10 0 59819  11160.00000  0   -4862698.762     456292.786    5089068.343
10 0 59819  11340.00000  0   -5684273.784     888256.599    4086684.138
10 0 59819  11520.00000  0   -6287600.207    1306565.443    2934323.885
10 0 59819  11700.00000  0   -6651435.542    1689992.885    1674320.240
10 0 59819  11880.00000  0   -6763885.968    2018177.311     352933.541
10 0 59819  12060.00000  0   -6622806.632    2272624.995    -981388.769
10 0 59819  12240.00000  0   -6235791.269    2437640.629   -2279836.087
10 0 59819  12420.00000  0   -5619759.986    2501139.821   -3495058.413
10 0 59819  12600.00000  0   -4800167.388    2455301.579   -4582911.140
10 0 59819  12780.00000  0   -3809883.915    2297027.905   -5504040.203
10 0 59819  12960.00000  0   -2687821.407    2028197.429   -6225251.635
10 0 59819  13140.00000  0   -1477375.849    1655708.421   -6720634.269
10 0 59819  13320.00000  0    -224748.728    1191311.308   -6972412.608
10 0 59819  13500.00000  0    1022782.596     651241.475   -6971518.737
10 0 59819  13680.00000  0    2218597.608      55666.732   -6717892.528
10 0 59819  13860.00000  0    3318429.674    -572041.343   -6220498.809
10 0 59819  14040.00000  0    4281974.270   -1206191.001   -5497056.728
10 0 59819  14220.00000  0    5074363.896   -1819785.831   -4573485.043
10 0 59819  14400.00000  0    5667466.991   -2385645.603   -3483061.321
10 0 59819  14580.00000  0    6040953.883   -2877588.795   -2265296.759
10 0 59819  14760.00000  0    6183075.428   -3271625.573    -964547.998
10 0 59819  14940.00000  0    6091105.311   -3547102.707     371592.040
10 0 59819  15120.00000  0    5771413.646   -3687740.543    1694065.189
10 0 59819  15300.00000  0    5239154.773   -3682502.122    2954209.206
10 0 59819  15480.00000  0    4517573.004   -3526238.371    4105615.954
10 0 59819  15660.00000  0    3636972.410   -3220075.742    5105895.642
10 0 59819  15840.00000  0    2633402.841   -2771529.245    5918274.074
10 0 59819  16020.00000  0    1547131.058   -2194331.861    6512952.100
10 0 59819  16200.00000  0     420977.995   -1507995.802    6868181.714
10 0 59819  16380.00000  0    -701403.575    -737127.119    6971031.280
10 0 59819  16560.00000  0   -1777239.626      89479.162    6817826.413
10 0 59819  16740.00000  0   -2766274.439     939929.655    6414264.476
10 0 59819  16920.00000  0   -3632286.959    1780472.465    5775203.034
10 0 59819  17100.00000  0   -4344435.416    2576843.684    4924127.673
10 0 59819  17280.00000  0   -4878384.958    3295675.204    3892306.865
10 0 59819  17460.00000  0   -5217169.504    3905904.800    2717649.635
10 0 59819  17640.00000  0   -5351749.590    4380127.496    1443306.095
10 0 59819  17820.00000  0   -5281241.231    4695825.592     116055.325
10 0 59819  18000.00000  0   -5012799.068    4836407.760   -1215455.124
10 0 59819  18180.00000  0   -4561163.307    4792007.579   -2502539.823
10 0 59819  18360.00000  0   -3947890.495    4559997.335   -3698295.230
10 0 59819  18540.00000  0   -3200316.864    4145191.901   -4759319.019
10 0 59819  18720.00000  0   -2350318.977    3559746.711   -5647255.982
10 0 59819  18900.00000  0   -1432944.517    2822769.705   -6330125.178
10 0 59819  19080.00000  0    -484970.564    1959666.625   -6783399.839
10 0 59819  19260.00000  0     456549.672    1001250.710   -6990811.246
10 0 59819  19440.00000  0    1355697.125     -17344.201   -6944875.526
10 0 59819  19620.00000  0    2179019.216   -1057918.455   -6647141.803
10 0 59819  19800.00000  0    2896742.968   -2080595.945   -6108154.103
10 0 59819  19980.00000  0    3483838.485   -3045308.805   -5347133.370
10 0 59819  20160.00000  0    3920906.405   -3913346.491   -4391375.171
10 0 59819  20340.00000  0    4194849.821   -4648912.880   -3275350.935
10 0 59819  20520.00000  0    4299303.635   -5220626.591   -2039537.063
10 0 59819  20700.00000  0    4234799.339   -5602905.077    -728987.431
10 0 59819  20880.00000  0    4008639.460   -5777152.727     608311.752
10 0 59819  21060.00000  0    3634480.224   -5732681.780    1923237.243
10 0 59819  21240.00000  0    3131637.435   -5467307.764    3167396.453
10 0 59819  21420.00000  0    2524146.489   -4987580.715    4294973.597
10 0 59819  21600.00000  0    1839633.112   -4308642.877    5264468.787
10 0 59819  21780.00000  0    1108054.962   -3453719.619    6040256.111
99
